[{"OBJECT_NAME":"LEMUR-2-DEMBITZ","OBJECT_ID":"2017-042T","EPOCH":"2026-03-09T11:23:53.232288","MEAN_MOTION":15.26947128,"ECCENTRICITY":0.00069617,"INCLINATION":97.3807,"RA_OF_ASC_NODE":250.9241,"ARG_OF_PERICENTER":17.1421,"MEAN_ANOMALY":343.0051,"EPHEMERIS_TYPE":0,"CLASSIFICATION_TYPE":"U","NORAD_CAT_ID":42842,"ELEMENT_SET_NO":999,"REV_AT_EPOCH":47311,"BSTAR":0.00076560825,"MEAN_MOTION_DOT":0.00020231,"MEAN_MOTION_DDOT":0},{"OBJECT_NAME":"STARLINK-35785","OBJECT_ID":"2025-303P","EPOCH":"2026-03-08T16:48:27.758592","MEAN_MOTION":15.27590097,"ECCENTRICITY":0.00016468,"INCLINATION":42.998,"RA_OF_ASC_NODE":316.3187,"ARG_OF_PERICENTER":260.863,"MEAN_ANOMALY":99.2036,"EPHEMERIS_TYPE":0,"CLASSIFICATION_TYPE":"U","NORAD_CAT_ID":67176,"ELEMENT_SET_NO":999,"REV_AT_EPOCH":1258,"BSTAR":0.001349336,"MEAN_MOTION_DOT":0.00037067,"MEAN_MOTION_DDOT":0}]
